partner_name,address_line1,city,state,postal_code
AC Corp,301 Creek Ridge Road,Greensboro,NC,27406
AC Corp,2550 Viceroy Drive,Winston-Salem,NC,27103
AC Corp,8205 Brownleigh Drive,Raleigh,NC,27617
Advanced Integrated Services,111 Jersey Drive,Youngsville,LA,70592
Advanced Integrated Services,10716 Hwy 191,Midland,TX,79707
Air Professional Associates,39 Fields Lane,North Salem,NY,10560
American Legacy Construction,1121 SE Broadway Dr.,Lee's Summit,MO,64081
Blue Works,2160 Sunnydale Blvd. Suite A,Clearwater,FL,33765
CAM HVAC & Construction,116 Lydia Ann Rd,Smithfield,RI,02917
C&C Service,72 Dyke Lane,Stamford,CT,06902
C2 Technology Group,"6012 East Shirley Lane, Suite B",Montgomery,AL,36117
Control Air Systems,25 Ray Ave,Burlington,MA,01803
Control Solutions Inc,2960 South Fox Street,Englewood,CO,80110
Crete Building Services FL,9187 Boggy Creek Road Suite 3,Orlando,FL,32824
Crete Building Services TX,3342 US-80 E.,Mesquite,TX,75149
Crete Building Services TX,"2061 Clovis Barker Rd, Bldg 4A",San Marcos,TX,78666
Crete United Energy Services,1 Cowboys Way STE 300,Frisco,TX,75034
Crosby Electric,6012 E. Shirley Lane,Montgomery,AL,36117
DesignBuild Mechanical,"11327 Allen Station Drive, Suite A",Mint Hill,NC,28227
Dynaire Corporation,134 Herricks Road,Mineola,NY,11501
Emerald Built Environments,4415 Euclid Ave. Ste. 201,Cleveland,OH,44103
Facility Systems Services,930 Matthews-Mint Hill Rd,Matthews,NC,28105
Foster Plumbing,"1531 W Bayaud Ave., Unit A",Denver,CO,80223
General & Mechanical Services,1007 Skidmore Dr,Annapolis,MD,21409
Hartwig Mechanical,20800 E. Brink Street,Harvard,IL,60033
Hillard Electric,11855 White Creek Ave.,Cedar Springs,MI,49319
Hometown Mechanical,13606 118th Ave,Davenport,IA,52804
Industrial Maintenance & Automation,2409 South post road,Shelby,NC,28152
John's Service & Sales,119 West Walnut St.,Oglesby,IL,61348
Legacy Mechanical,1680 Roberts Blvd,Kennesaw,GA,30144
Loellke Plumbing,22974 E. County Road,Jerseyville,IL,62052
Metro Mechanical,851 N Pine Hill Road,Birmingham,AL,35217
Major Mechanical,"7601 Northland Drive, North Suite 110",Brooklyn Park,MN,55428
Nielsen Mechanical,6405 E Platte Ave,Colorado Springs,CO,80915
Nielsen Mechanical,7808 Cherry Creek South Dr.,Denver,CO,80231
Piper Electric,5550 W 60th Ave,Arvada,CO,80003
ProTech,1622 Saratoga Blvd.,Corpus Christi,TE,78417
ProTech,2801 Zachary,La Feria,TE,78559
Relco Reilly Electric,14 Norfolk Avenue,South Easton,MA,02375
Relco Reilly Electric,121 Lafayette Road,N. Hampton,NH,03862
Relco Reilly Electric,110 Old Townhouse Road,South Yarmouth,MA,02664
Relco Reilly Electric,10 Worthington Road,Cranston,RI,02920
S Mechanical,17601 Southwest Highway,Orland Park,IL,60467
S&W Contracting,952 New Salem Hwy,Murfreesboro,TN,37129
Sam Mechanical,1181 Hooksett Road,Hooksett,NH,03106
Stanmark Electric,5550 W 60th Ave,Arvada,CO,80003
Swedberg Electric,525 Brickville Rd,Sycamore,IL,60178
Tra Mar Mechanical,"6525 West 4th Street, Suite 8",Greeley,CO,80634